satname,norad_id,inclination_deg,eccentricity,mean_motion_rev_per_day,perigee_km,apogee_km,l1,l2
STARLINK-1143,45179,53.0472,0.0004741,15.57127568,392.76348816881546,399.1867012570219,1 45179U 20012B   26047.48633761  .00039089  00000+0  53321-3 0  9993,2 45179  53.0472  73.1720 0004741 359.0078   1.0923 15.57127568332614
STARLINK-1202,45183,53.1599,0.0001321,15.30193683,474.3286006075905,476.13926120753695,1 45183U 20012F   26047.65715176  .00000252  00000+0  20639-4 0  9995,2 45183  53.1599 136.9449 0001321  92.3477 267.7675 15.30193683331736
STARLINK-1216,45185,53.1615,0.0001333,15.30191015,474.3283417340499,476.1554525480269,1 45185U 20012H   26047.51705539  .00004353  00000+0  15904-3 0  9998,2 45185  53.1615 137.5750 0001333  89.4977 270.6177 15.30191015331652
STARLINK-1225,45187,53.1625,0.0001058,15.30199233,474.4922746527873,475.94244443526713,1 45187U 20012K   26047.44863022  .00002205  00000+0  86537-4 0  9999,2 45187  53.1625 138.3318 0001058  78.8429 281.2691 15.30199233331684
STARLINK-1230,45189,53.1615,0.0001309,15.30196983,474.3269726872404,476.12118261737123,1 45189U 20012M   26047.71938285 -.00000118  00000+0  81597-5 0  9999,2 45189  53.1615 137.1352 0001309  86.2390 273.8761 15.30196983328959
STARLINK-1234,45190,53.0449,0.0005918,15.57260196,391.5817744214728,399.59915825062853,1 45190U 20012N   26047.91668981  .00147969  00000+0  19625-2 0  9991,2 45190  53.0449  66.4503 0005918 267.4004 241.3159 15.57260196  5929
STARLINK-1269,45197,53.1619,0.000131,15.3020012,474.31692204681985,476.1125001951341,1 45197U 20012V   26047.65088570  .00001412  00000+0  59793-4 0  9993,2 45197  53.1619 137.3158 0001310  64.0023 296.1112 15.30200120331699
STARLINK-1154,45198,53.0502,0.000614,15.42625144,434.1797348604696,442.5503993989041,1 45198U 20012W   26047.39261054  .00060847  00000+0  13742-2 0  9994,2 45198  53.0502 111.3136 0006140   6.2707 353.8373 15.42625144332007
STARLINK-1199,45201,53.086,0.0001993,15.14083485,522.3868760893774,525.1379732000414,1 45201U 20012Z   26047.91668981  .01361290  00000+0  67957-1 0  9990,2 45201  53.0860 119.7588 0001993  81.7317  64.6669 15.14083485  5836
STARLINK-1209,45206,53.0476,0.0007211,15.47090023,420.33794986746216,430.1497857550203,1 45206U 20012AE  26047.44691566  .00086567  00000+0  16702-2 0  9991,2 45206  53.0476  75.2228 0007211 229.2311 130.8070 15.47090023331626
STARLINK-1210,45207,53.0096,0.0005483,16.00248646,270.08235072960633,277.37678760935705,1 45207U 20012AF  26047.66668981  .00506856  12328-3  95586-3 0  9997,2 45207  53.0096   8.1696 0005483  96.5142   3.3988 16.00248646  6015
STARLINK-1231,45212,53.0456,0.0003306,15.19243897,505.8478554896774,510.40105156274967,1 45212U 20012AL  26047.64031038  .00034394  00000+0  16192-2 0  9996,2 45212  53.0456 112.3140 0003306 359.1565   0.9424 15.19243897332025
STARLINK-1271,45217,53.0771,0.0001969,15.12104258,528.423642023472,531.1439812390918,1 45217U 20012AR  26047.91668981  .01399023  00000+0  73617-1 0  9992,2 45217  53.0771 119.8127 0001969  89.6329 107.0411 15.12104258  5788
STARLINK-1191,45222,53.1586,0.0001189,15.31017118,471.9618139256172,473.59096112917086,1 45222U 20012AW  26047.64267060 -.00001666  00000+0 -42924-4 0  9995,2 45222  53.1586  96.6394 0001189  74.5584 285.5548 15.31017118332298
STARLINK-1212,45223,53.0522,0.0004876,15.44407455,429.7985362236532,436.44087376236257,1 45223U 20012AX  26047.74951549  .00077129  00000+0  16350-2 0  9996,2 45223  53.0522  90.3759 0004876  29.5415 330.5865 15.44407455332398
STARLINK-1215,45225,53.1586,0.0001355,15.30210045,474.25645188258204,476.11370216545583,1 45225U 20012AZ  26047.62434359  .00003637  00000+0  13481-3 0  9996,2 45225  53.1586  96.1521 0001355  83.5776 276.5379 15.30210045332257
STARLINK-1221,45227,53.0671,0.0002286,15.41088195,441.3371550156835,444.4557315059419,1 45227U 20012BB  26047.12690651  .00018187  00000+0  44174-3 0  9991,2 45227  53.0671  11.7252 0002286 353.6461   6.4514 15.41088195333380
STARLINK-1222,45228,53.0546,0.0003023,15.48119639,420.1712766426781,424.2827767332137,1 45228U 20012BC  26047.58468074  .00064242  00000+0  12024-2 0  9995,2 45228  53.0546  83.8926 0003023  28.0438 332.0731 15.48119639332357
STARLINK-1226,45229,53.1595,0.0001326,15.31027997,471.83550706343794,473.65236068710146,1 45229U 20012BD  26047.39816043  .00000023  00000+0  12680-4 0  9995,2 45229  53.1595  97.5762 0001326  88.8132 271.3021 15.31027997332154
STARLINK-1227,45230,53.1608,0.0001558,15.30990201,471.7893017206452,473.92407135337,1 45230U 20012BE  26047.36055363  .00009379  00000+0  32053-3 0  9992,2 45230  53.1608  98.0631 0001558  88.4459 271.6720 15.30990201332264
STARLINK-1246,45235,53.1598,0.000135,15.30196864,474.29922917259773,476.1496367594982,1 45235U 20012BK  26047.72562764  .00001536  00000+0  63975-4 0  9990,2 45235  53.1598 136.6227 0001350  99.9976 260.1177 15.30196864331764
STARLINK-1270,45237,53.0495,0.000411,15.43391881,433.3066594114571,438.9079682374204,1 45237U 20012BM  26047.49500936  .00074998  00000+0  16462-2 0  9998,2 45237  53.0495  88.5100 0004110 347.8056  12.2849 15.43391881332399
STARLINK-1279,45360,53.0453,0.0004931,15.53149279,404.1917720862157,410.8838045624607,1 45360U 20019A   26047.68371935  .00099421  00000+0  15456-2 0  9998,2 45360  53.0453 200.2928 0004931 144.0312 216.1030 15.53149279327400
STARLINK-1301,45361,53.0433,0.0006834,15.59940239,383.20601537875064,392.45373890642895,1 45361U 20019B   26047.91668981  .00161802  00000+0  19354-2 0  9999,2 45361  53.0433 205.6586 0006834 143.4964 103.8669 15.59940239  5817
STARLINK-1262,45366,53.0541,0.0001679,15.06386721,546.0894836035568,548.4150293158773,1 45366U 20019G   26047.79277242  .00001805  00000+0  14007-3 0  9993,2 45366  53.0541 260.4274 0001679  88.2697 271.8485 15.06386721326580
STARLINK-1273,45367,53.0515,0.0002086,15.41873112,439.1589526486423,442.00372193896055,1 45367U 20019H   26047.80855313  .00068247  00000+0  15787-2 0  9995,2 45367  53.0515 253.9653 0002086 143.4882 216.6265 15.41873112326670
STARLINK-1276,45368,53.0551,0.000164,15.06398983,546.0789172238728,548.350432573241,1 45368U 20019J   26047.78539757 -.00001305  00000+0 -68701-4 0  9994,2 45368  53.0551 260.4555 0001640 109.0420 251.0747 15.06398983326583
STARLINK-1277,45369,53.0522,0.000158,15.45049338,430.15722557561094,432.308986529124,1 45369U 20019K   26047.76116736  .00111209  00000+0  22932-2 0  9998,2 45369  53.0522 252.5649 0001580  79.5116 280.6068 15.45049338326690
STARLINK-1281,45370,53.0525,0.0001764,15.06391547,546.0158292312926,548.4591013426461,1 45370U 20019L   26047.77436550  .00004654  00000+0  33122-3 0  9999,2 45370  53.0525 260.5111 0001764 105.4852 254.6331 15.06391547326589
STARLINK-1300,45374,53.0544,0.00015,15.06388029,546.2094397849723,548.2870553592447,1 45374U 20019Q   26047.79646307 -.00000059  00000+0  14934-4 0  9995,2 45374  53.0544 260.4134 0001500  73.1253 286.9900 15.06388029326583
STARLINK-1302,45375,53.0508,0.0002579,15.46239921,425.9820095305722,429.49247946588457,1 45375U 20019R   26047.79678323  .00110845  00000+0  21945-2 0  9991,2 45375  53.0508 251.8092 0002579 154.5798 205.5335 15.46239921326709
STARLINK-1304,45376,53.0506,0.0004458,15.4457651,429.5864613187696,435.65893466550006,1 45376U 20019S   26047.76877732  .00070241  00000+0  14827-2 0  9990,2 45376  53.0506 249.3258 0004458 155.2123 204.9097 15.44576510326739
STARLINK-1305,45377,53.0457,0.0006078,15.48783854,416.15052843124977,424.4146873065765,1 45377U 20019T   26047.76542677  .00096187  00000+0  17470-2 0  9992,2 45377  53.0457 232.7962 0006078 108.8476 251.3191 15.48783854326970
STARLINK-1319,45379,53.0473,0.0005063,15.54768215,399.39328165054303,406.25968527389705,1 45379U 20019V   26047.77473139  .00098240  00000+0  14402-2 0  9995,2 45379  53.0473 231.4731 0005063 126.1924 233.9554 15.54768215326996
STARLINK-1266,45383,53.0504,0.0001277,15.42153745,438.88344459197833,440.62473397618123,1 45383U 20019Z   26047.81277573  .00015754  00000+0  37078-3 0  9993,2 45383  53.0504 232.2016 0001277 127.6462 232.4658 15.42153745326977
STARLINK-1267,45384,53.0522,0.0007537,15.45938333,423.49210645938,433.7526155201358,1 45384U 20019AA  26047.76302438  .00048839  00000+0  98887-3 0  9992,2 45384  53.0522 227.0763 0007537 164.1853 195.9390 15.45938333327046
STARLINK-1272,45386,53.0467,0.0005372,15.52079157,407.00953205977294,414.3034117659954,1 45386U 20019AC  26047.76868256  .00098608  00000+0  15933-2 0  9998,2 45386  53.0467 210.8104 0005372 131.9500 228.1967 15.52079157327273
STARLINK-1274,45387,53.0277,0.0007846,15.44412068,427.762040601584,438.4502433399657,1 45387U 20019AD  26047.70703181  .00081993  00000+0  17351-2 0  9993,2 45387  53.0277 203.0039 0007846 161.9694 198.1591 15.44412068327372
STARLINK-1280,45388,53.0451,0.0005307,15.61138211,380.77923555196776,387.9569584619312,1 45388U 20019AE  26047.91668981  .00167058  00000+0  19079-2 0  9991,2 45388  53.0451 224.2280 0005307 122.2193 100.7780 15.61138211  5976
STARLINK-1283,45389,53.0463,0.0009673,15.51790778,404.9299017401836,418.06512867330184,1 45389U 20019AF  26047.68974874  .00112164  00000+0  18247-2 0  9991,2 45389  53.0463 211.3746 0009673 155.2946 204.8528 15.51790778327262
STARLINK-1284,45390,53.0501,0.000229,15.47983036,421.0697148659892,424.18446481913816,1 45390U 20019AG  26047.78409733  .00057927  00000+0  10911-2 0  9996,2 45390  53.0501 231.2691 0002290 175.3250 184.7779 15.47983036326984
STARLINK-1297,45395,53.0499,0.0001235,15.49995377,415.9004128109682,417.5787473262453,1 45395U 20019AM  26047.82432917  .00094532  00000+0  16468-2 0  9992,2 45395  53.0499 231.1163 0001235 182.1152 177.9851 15.49995377326172
STARLINK-1307,45397,53.0546,0.000107,15.4876061,419.623190564329,421.07806691687983,1 45397U 20019AP  26047.78319626  .00026836  00000+0  49833-3 0  9995,2 45397  53.0546 230.9569 0001070  90.8004 269.3126 15.48760610326813
